56P/Slaughter-Burnham,e,8.1604,345.9915,43.9861,5.069950,0.0863373,0.50737836,149.6935,04/18.0/2021,2000,g  8.5,6.0
# From MPC 98565
57P/du Toit-Neujmin-Delporte,e,2.8509,188.7790,115.2582,3.445948,0.1540781,0.50082011,331.8893,04/18.0/2021,2000,g 12.5,6.0
# From MPEC 2020-SI8
58P/Jackson-Neujmin,e,13.1105,159.0758,200.4526,4.081315,0.1195374,0.66249588,38.9158,04/18.0/2021,2000,g 15.5,6.0
# From MPEC 2021-F20
59P/Kearns-Kwee,e,9.3413,312.8343,127.5511,4.487626,0.1036762,0.47505856,97.9300,04/18.0/2021,2000,g  7.0,6.0
# From MPEC 2021-F20
60P/Tsuchinshan,e,3.5923,267.5607,216.9331,3.522356,0.1490920,0.53524069,128.2152,04/18.0/2021,2000,g 11.5,6.0
# From MPEC 2015-Q71
61P/Shajn-Schaldach,e,5.9988,162.9796,221.8454,3.686331,0.1392556,0.42389069,282.8039,04/18.0/2021,2000,g  6.0,10.0
# From MPC109147
62P/Tsuchinshan,e,4.7797,69.7622,46.7435,3.349921,0.1607504,0.63087881,202.6885,04/18.0/2021,2000,g  8.0,10.0
# From MPC 84320
63P/Wild,e,19.7293,358.0186,169.1087,5.606335,0.0742481,0.64883194,218.0071,04/18.0/2021,2000,g 10.5,6.0
# From MPC111774
64P/Swift-Gehrels,e,8.9502,299.9975,97.0733,4.453882,0.1048566,0.68788615,93.9370,04/18.0/2021,2000,g  9.5,12.0
# From MPEC 2021-FB5
65P/Gunn,e,9.1800,62.0198,213.8657,3.885650,0.1286792,0.24950773,164.4813,04/18.0/2021,2000,g  5.0,6.0
# From MPC109147
66P/du Toit,e,18.6511,21.8374,257.3678,6.066025,0.0659702,0.78677791,70.2494,04/18.0/2021,2000,g  9.0,4.0
# From MPC 89011
67P/Churyumov-Gerasimenko,e,3.8709,36.3498,22.1056,3.458393,0.1532472,0.64996735,329.6535,04/18.0/2021,2000,g 11.0,4.0
# From MPC 75716
68P/Klemola,e,11.1102,175.0652,153.1257,4.952898,0.0894159,0.63764556,47.0213,04/18.0/2021,2000,g 10.0,4.0
# From MPC114607
69P/Taylor,e,22.0336,104.8269,343.4567,3.887699,0.1285775,0.41308163,97.9592,04/18.0/2021,2000,g  9.5,12.0
# From MPEC 2021-BE3
70P/Kojima,e,6.5982,119.2685,1.8416,3.676603,0.1398086,0.45358423,332.1564,04/18.0/2021,2000,g 11.0,6.0
# From MPC107051
71P/Clark,e,9.4384,59.4204,209.0455,3.138325,0.1772790,0.49399153,245.9228,04/18.0/2021,2000,g  9.8,6.0
# From MPC 89011
72P/Denning-Fujikawa,e,10.9401,26.6908,346.6853,4.310927,0.1101154,0.81835833,273.1161,04/18.0/2021,2000,g 17.5,10.0
# From MPC106348
73P/Schwassmann-Wachmann,e,11.2297,69.6333,199.4641,3.092946,0.1811948,0.68555213,270.3774,04/18.0/2021,2000,g 11.5,6.0
# From MPC106348
73P-T/Schwassmann-Wachmann,e,11.2319,69.6359,199.4455,3.094508,0.1810575,0.68575477,270.1738,04/18.0/2021,2000,g 11.5,6.0
# From MPEC 2021-BE3
74P/Smirnova-Chernykh,e,6.2678,73.9228,102.3522,4.294980,0.1107293,0.15080851,121.7631,04/18.0/2021,2000,g  5.0,6.0
# From MPEC 2020-SI8
76P/West-Kohoutek-Ikemura,e,30.4589,84.1175,359.9750,3.472855,0.1522910,0.53811721,82.2277,04/18.0/2021,2000,g  8.0,12.0
# From MPC100283
77P/Longmore,e,24.3196,14.7840,196.8422,3.621630,0.1430039,0.35208068,257.7040,04/18.0/2021,2000,g  7.0,8.0
# From MPEC 2021-FB5
78P/Gehrels,e,6.2508,210.5216,192.6430,3.739061,0.1363202,0.46202067,101.7185,04/18.0/2021,2000,g  5.5,8.0
# From MPC 94675
79P/du Toit-Hartley,e,3.1479,280.5315,281.8023,2.942880,0.1952294,0.61885236,185.1118,04/18.0/2021,2000,g 16.0,4.0
# From MPEC 2014-P41
80P/Peters-Hartley,e,29.9325,259.8176,339.2527,4.024332,0.1220853,0.59884791,286.7755,04/18.0/2021,2000,g  9.0,4.0
# From MPC105241
81P/Wild,e,3.2368,136.0983,41.6863,3.451454,0.1537096,0.53704195,266.7333,04/18.0/2021,2000,g  7.0,6.0
# From MPEC 2020-L06
82P/Gehrels,e,1.1286,239.3092,226.7033,4.135544,0.1171939,0.12169206,120.4620,04/18.0/2021,2000,g  5.0,8.0
# From MPEC 2021-FB5
84P/Giclas,e,7.5520,108.1743,281.5718,3.548949,0.1474193,0.51568984,46.9014,04/18.0/2021,2000,g  9.5,8.0
# From MPC109147
86P/Wild,e,15.4740,72.3620,179.3711,3.602687,0.1441333,0.37246510,317.4080,04/18.0/2021,2000,g 11.0,6.0
# From MPEC 2020-SI8
87P/Bus,e,2.6044,181.8071,25.1194,3.443007,0.1542756,0.38990643,52.9636,04/18.0/2021,2000,g  7.2,10.0
# From MPEC 2019-JE2
88P/Howell,e,4.3837,56.6799,235.9013,3.105047,0.1801365,0.56424663,36.6409,04/18.0/2021,2000,g 11.0,6.0
# From MPC100283
89P/Russell,e,12.0694,41.3855,250.3328,3.753962,0.1355093,0.40860983,214.6133,04/18.0/2021,2000,g 11.5,6.0
# From MPC107051
90P/Gehrels,e,9.6459,13.2064,29.0708,6.053055,0.0661823,0.51004308,92.5707,04/18.0/2021,2000,g  8.5,6.0
# From MPC105241
91P/Russell,e,14.0887,247.8230,354.8418,3.892700,0.1283299,0.33098284,20.4650,04/18.0/2021,2000,g  7.5,6.0
# From MPEC 2014-J58
92P/Sanguin,e,19.4938,181.3711,163.7447,5.344517,0.0797703,0.66086113,178.4312,04/18.0/2021,2000,g 12.0,6.0
# From NK 2707
93P/Lovas,e,12.2033,339.6444,74.8180,4.383049,0.1074087,0.61249252,162.0903,04/18.0/2021,2000,g  9.0,4.0
# From MPEC 2020-W26
94P/Russell,e,6.1879,70.8591,92.4668,3.507319,0.1500518,0.36485156,245.4348,04/18.0/2021,2000,g  9.0,6.0
# From MPC 75717
95P/Chiron,e,6.9316,209.2696,339.7307,13.69852,0.0194399,0.37746713,179.2189,04/18.0/2021,2000,g  6.5,2.0
# From MPEC 2017-T14
96P/Machholz,e,57.6260,94.0130,14.7334,3.028024,0.1870532,0.96159758,237.7984,04/18.0/2021,2000,g  9.0,4.0
# From MPC 77020
97P/Metcalf-Brewington,e,17.9435,184.0823,229.8725,4.766626,0.0947082,0.46065210,331.2852,04/18.0/2021,2000,g  5.5,6.0
# From MPEC 2013-H38
98P/Takamizawa,e,10.5610,114.7110,157.9125,3.800345,0.1330361,0.56242331,13.7136,04/18.0/2021,2000,g  9.0,8.0
# From MPEC 2021-FB5
99P/Kowal,e,4.3387,28.1080,174.9612,6.110257,0.0652552,0.22984414,336.5139,04/18.0/2021,2000,g  4.5,6.0
# From MPEC 2013-O31
100P/Hartley,e,25.5656,37.7023,181.9927,3.432256,0.1550010,0.41235919,285.6033,04/18.0/2021,2000,g  9.0,4.0
# From MPEC 2021-FB5
101P/Chernykh,e,5.0528,116.2293,277.7025,5.802609,0.0705130,0.59591401,32.5349,04/18.0/2021,2000,g 10.0,4.8
# From MPC 86232
102P/Shoemaker,e,25.8849,339.3661,20.5414,3.812787,0.1323855,0.45710723,11.3327,04/18.0/2021,2000,g  6.5,8.0
# From MPEC 2018-HA5
103P/Hartley,e,13.6000,219.7306,181.2842,3.476191,0.1520718,0.69319102,221.9319,04/18.0/2021,2000,g  8.5,8.0
# From MPC100283
104P/Kowal,e,5.7183,207.4410,227.0702,3.208328,0.1715086,0.66570623,314.0240,04/18.0/2021,2000,g 16.0,4.0
# From MPC109147
105P/Singer Brewster,e,9.1708,192.4134,46.4853,3.467230,0.1526617,0.40953730,149.9568,04/18.0/2021,2000,g 11.5,6.0
# From MPC 92276
106P/Schuster,e,19.5356,48.8901,353.6556,3.763302,0.1350052,0.59379844,343.4276,04/18.0/2021,2000,g 14.0,4.8
# From MPEC 2015-M77
107P/Wilson-Harrington,e,2.7986,266.7950,95.4017,2.625324,0.2317020,0.63152529,245.6043,04/18.0/2021,2000,g  9.0,4.0
# From MPC 89313
108P/Ciffreo,e,11.4367,50.2979,354.3978,3.739567,0.1362925,0.55601312,340.2294,04/18.0/2021,2000,g  8.0,12.0
# From  105, 420
109P/Swift-Tuttle,e,113.9903,139.0367,152.9057,26.13663,0.0073761,0.96290371,76.4449,04/18.0/2021,2000,g  4.0,6.0
# From MPEC 2020-W26
110P/Hartley,e,11.7073,287.5341,167.4548,3.601138,0.1442263,0.31807261,333.5574,04/18.0/2021,2000,g  1.0,12.0
# From MPC 75718
111P/Helin-Roman-Crockett,e,4.2271,89.7667,1.0098,4.146862,0.1167145,0.10591883,353.1416,04/18.0/2021,2000,g  5.0,8.0
# From MPC118097
112P/Urata-Niijima,e,24.1946,31.8373,21.4875,3.525767,0.1488756,0.58986445,64.7639,04/18.0/2021,2000,g 14.0,6.0
# From MPEC 2015-E14
113P/Spitaler,e,5.2973,306.7141,115.3285,3.701326,0.1384102,0.42140776,303.4279,04/18.0/2021,2000,g 13.5,4.0
# From MPEC 2021-BE3
114P/Wiseman-Skiff,e,18.2729,271.0523,172.7790,3.545562,0.1476306,0.55473637,67.9043,04/18.0/2021,2000,g 11.5,6.0
# From MPEC 2020-SI8
115P/Maury,e,11.6775,176.0099,120.9804,4.272756,0.1115943,0.51864540,29.2789,04/18.0/2021,2000,g 10.5,6.0
# From MPC106348
116P/Wild,e,3.6034,20.9867,173.3464,3.489643,0.1511933,0.37065021,291.2013,04/18.0/2021,2000,g  2.5,10.0
# From MPEC 2021-FB5
117P/Helin-Roman-Alu,e,8.7024,58.8441,222.8366,4.084972,0.1193769,0.25572707,306.8432,04/18.0/2021,2000,g  2.5,8.0
# From MPC 95735
118P/Shoemaker-Levy,e,10.0811,142.1144,314.2660,3.365663,0.1596240,0.45573825,266.9485,04/18.0/2021,2000,g 12.0,4.0
# From MPC 84628
119P/Parker-Hartley,e,7.4093,104.7182,321.6201,3.820089,0.1320060,0.39063125,296.6989,04/18.0/2021,2000,g  3.5,8.0
# From MPEC 2020-SI8
120P/Mueller,e,8.4900,358.6743,36.5558,3.961438,0.1250042,0.37450310,357.6080,04/18.0/2021,2000,g 12.0,4.0
# From MPEC 2020-SI8
121P/Shoemaker-Holt,e,20.1630,94.1296,11.3519,4.585052,0.1003893,0.18555079,279.6671,04/18.0/2021,2000,g  6.5,8.0
# From MPC 75718
122P/de Vico,e,84.8797,79.5492,13.0088,17.62750,0.0133174,0.96225686,124.5191,04/18.0/2021,2000,g  7.5,5.2
# From MPC114608
123P/West-Hartley,e,15.2973,46.2141,103.7795,3.873059,0.1293073,0.44737891,103.8070,04/18.0/2021,2000,g  4.0,10.0
# From MPEC 2020-SI8
124P/Mrkos,e,31.5176,0.3417,183.9452,3.319996,0.1629287,0.50350272,58.0051,04/18.0/2021,2000,g 13.5,2.8
# From MPEC 2015-M77
125P/Spacewatch,e,9.9866,153.1505,87.2391,3.125790,0.1783464,0.51273753,172.0132,04/18.0/2021,2000,g  9.0,4.0
# From MPC 66205
126P/IRAS,e,45.8679,357.8613,356.5207,5.640301,0.0735784,0.69625187,300.5227,04/18.0/2021,2000,g  9.0,4.0
# From MPC 84321
127P/Holt-Olmstead,e,14.2967,13.6376,6.4808,3.451027,0.1537381,0.35988449,286.1913,04/18.0/2021,2000,g 11.0,6.0
# From MPC 89014
128P/Shoemaker-Holt,e,4.3673,214.2970,210.3126,4.492405,0.1035108,0.32068747,161.4494,04/18.0/2021,2000,g  8.5,4.0
# From MPEC 2019-TG9
129P/Shoemaker-Levy,e,3.4424,184.8829,307.8616,4.283161,0.1111879,0.08400726,293.9066,04/18.0/2021,2000,g 11.0,4.0
# From MPC 78188
130P/McNaught-Hughes,e,6.0629,70.2291,246.0027,3.383824,0.1583406,0.46136676,187.0613,04/18.0/2021,2000,g 10.0,6.0
# From MPC102101
131P/Mueller,e,7.3551,214.1594,179.0277,3.680786,0.1395703,0.34388103,113.7087,04/18.0/2021,2000,g 11.0,4.0
# From MPEC 2020-HN5
132P/Helin-Roman-Alu,e,5.3809,174.0090,216.3457,3.888630,0.1285314,0.56501953,333.1200,04/18.0/2021,2000,g 11.0,6.0
# From MPC 94676
133P/Elst-Pizarro,e,1.3892,160.1098,131.8197,3.164609,0.1750749,0.15697391,164.4318,04/18.0/2021,2000,g 15.4,2.0
# From MPC 89012
134P/Kowal-Vavrova,e,4.3403,202.0742,18.8870,6.259993,0.0629279,0.58614435,158.9435,04/18.0/2021,2000,g 11.5,4.0
# From MPEC 2021-F20
